NORAD_CAT_ID,OBJECT_NAME,OBJECT_TYPE,EPOCH,MEAN_MOTION,ECCENTRICITY,INCLINATION,RA_OF_ASC_NODE,ARG_OF_PERICENTER,MEAN_ANOMALY,BSTAR,MEAN_MOTION_DOT,MEAN_MOTION_DDOT,TLE_LINE0,TLE_LINE1,TLE_LINE2,SEMIMAJOR_AXIS,PERIOD,APOGEE,PERIGEE,DECAYED
56769.0,STARLINK-5978,PAYLOAD,2024-08-04 14:04:42,14.98332042,0.0003022,69.9998,32.144,270.516,89.5653,1.5114e-05,8.7e-07,0.0,0 STARLINK-5978,1 56769U 23078C   24217.58660722  .00000087  00000-0  15114-4 0  9996,2 56769  69.9998  32.1440 0003022 270.5160  89.5653 14.98332042 64997,6950.187,96.107,574.152,569.951,0.0
56769.0,STARLINK-5978,PAYLOAD,2024-08-04 20:29:14,14.98334338,0.0002987,69.9999,31.4706,271.1963,88.8854,4.6481e-05,4.62e-06,0.0,0 STARLINK-5978,1 56769U 23078C   24217.85364470  .00000462  00000-0  46481-4 0  9995,2 56769  69.9999  31.4706 0002987 271.1963  88.8854 14.98334338 65291,6950.179,96.107,574.12,569.968,0.0
56769.0,STARLINK-5978,PAYLOAD,2024-08-04 22:05:22,14.9833453,0.0002987,69.9999,31.3023,271.2233,88.8584,4.7876e-05,4.78e-06,0.0,0 STARLINK-5978,1 56769U 23078C   24217.92040438  .00000478  00000-0  47876-4 0  9994,2 56769  69.9999  31.3023 0002987 271.2233  88.8584 14.98334530 65040,6950.179,96.107,574.12,569.968,0.0
56769.0,STARLINK-5978,PAYLOAD,2024-08-05 20:31:15,14.9833308,0.0002991,69.9998,28.9458,270.3021,89.7795,4.3783e-05,4.29e-06,0.0,0 STARLINK-5978,1 56769U 23078C   24218.85504317  .00000429  00000-0  43783-4 0  9997,2 56769  69.9998  28.9458 0002991 270.3021  89.7795 14.98333080 65440,6950.183,96.107,574.127,569.97,0.0
56769.0,STARLINK-5978,PAYLOAD,2024-08-06 12:32:36,14.98327356,0.0002925,70.0,27.2625,270.0659,90.0165,-3.1697e-05,-4.71e-06,0.0,0 STARLINK-5978,1 56769U 23078C   24219.52264872 -.00000471  00000-0 -31697-4 0  9991,2 56769  70.0000  27.2625 0002925 270.0659  90.0165 14.98327356 65542,6950.201,96.107,574.099,570.033,0.0
56769.0,STARLINK-5978,PAYLOAD,2024-08-06 14:08:44,14.98327006,0.0002934,70.0,27.0941,270.0405,90.0418,-3.5962e-05,-5.22e-06,0.0,0 STARLINK-5978,1 56769U 23078C   24219.58940909 -.00000522  00000-0 -35962-4 0  9995,2 56769  70.0000  27.0941 0002934 270.0405  90.0418 14.98327006 65295,6950.202,96.107,574.106,570.028,0.0
56769.0,STARLINK-5978,PAYLOAD,2024-08-06 18:57:09,14.98325193,0.0002967,70.0002,26.5893,268.8333,91.2486,-5.6419e-05,-7.66e-06,0.0,0 STARLINK-5978,1 56769U 23078C   24219.78969091 -.00000766  00000-0 -56419-4 0  9990,2 56769  70.0002  26.5893 0002967 268.8333  91.2486 14.98325193 65325,6950.208,96.107,574.135,570.011,0.0
56769.0,STARLINK-5978,PAYLOAD,2024-08-07 12:34:37,14.9833231,0.0003026,70.0003,24.7376,268.8578,91.2234,2.9756e-05,2.62e-06,0.0,0 STARLINK-5978,1 56769U 23078C   24220.52404463  .00000262  00000-0  29756-4 0  9994,2 56769  70.0003  24.7376 0003026 268.8578  91.2234 14.98332310 65690,6950.186,96.107,574.154,569.948,0.0
56769.0,STARLINK-5978,PAYLOAD,2024-08-07 20:35:17,14.98332752,0.0003023,70.0004,23.896,268.783,91.2982,3.9224e-05,3.75e-06,0.0,0 STARLINK-5978,1 56769U 23078C   24220.85784373  .00000375  00000-0  39224-4 0  9997,2 56769  70.0004  23.8960 0003023 268.7830  91.2982 14.98332752 65484,6950.184,96.107,574.15,569.948,0.0
56769.0,STARLINK-5978,PAYLOAD,2024-08-08 14:12:46,14.98327946,0.0003112,70.0004,22.0445,268.4144,91.6658,8.9745e-05,9.78e-06,0.0,0 STARLINK-5978,1 56769U 23078C   24221.59220564  .00000978  00000-0  89745-4 0  9998,2 56769  70.0004  22.0445 0003112 268.4144  91.6658 14.98327946 65592,6950.199,96.107,574.227,569.901,0.0
56769.0,STARLINK-5978,PAYLOAD,2024-08-08 20:37:18,14.98330193,0.0003119,70.0005,21.3714,268.774,91.3061,9.8627e-05,1.084e-05,0.0,0 STARLINK-5978,1 56769U 23078C   24221.85924425  .00001084  00000-0  98627-4 0  9992,2 56769  70.0005  21.3714 0003119 268.7740  91.3061 14.98330193 65892,6950.192,96.107,574.225,569.89,0.0
56769.0,STARLINK-5978,PAYLOAD,2024-08-09 14:14:47,14.98333648,0.0003171,70.0005,19.5192,272.2571,87.8225,2.4902e-05,2.04e-06,0.0,0 STARLINK-5978,1 56769U 23078C   24222.59360377  .00000204  00000-0  24902-4 0  9992,2 56769  70.0005  19.5192 0003171 272.2571  87.8225 14.98333648 65745,6950.182,96.107,574.251,569.843,0.0
56769.0,STARLINK-5978,PAYLOAD,2024-08-09 20:39:19,14.98335481,0.0003171,70.0006,18.8459,272.0861,87.9935,4.4474e-05,4.38e-06,0.0,0 STARLINK-5978,1 56769U 23078C   24222.86064167  .00000438  00000-0  44474-4 0  9995,2 56769  70.0006  18.8459 0003171 272.0861  87.9935 14.98335481 65784,6950.176,96.107,574.245,569.837,0.0
56769.0,STARLINK-5978,PAYLOAD,2024-08-10 12:40:40,14.98329541,0.0003112,70.0008,17.1626,272.633,87.4472,1.6864e-05,1.08e-06,0.0,0 STARLINK-5978,1 56769U 23078C   24223.52824516  .00000108  00000-0  16864-4 0  9997,2 56769  70.0008  17.1626 0003112 272.6330  87.4472 14.98329541 66148,6950.194,96.107,574.222,569.896,0.0
56769.0,STARLINK-5978,PAYLOAD,2024-08-10 14:16:48,14.98329637,0.0003111,70.0008,16.9943,272.6622,87.4181,1.7687e-05,1.18e-06,0.0,0 STARLINK-5978,1 56769U 23078C   24223.59500509  .00000118  00000-0  17687-4 0  9992,2 56769  70.0008  16.9943 0003111 272.6622  87.4181 14.98329637 65894,6950.194,96.107,574.221,569.897,0.0
56769.0,STARLINK-5978,PAYLOAD,2024-08-10 20:41:20,14.98332536,0.0003084,70.0008,16.3209,272.9692,87.1114,5.0087e-05,5.05e-06,0.0,0 STARLINK-5978,1 56769U 23078C   24223.86204240  .00000505  00000-0  50087-4 0  9996,2 56769  70.0008  16.3209 0003084 272.9692  87.1114 14.98332536 65932,6950.185,96.107,574.193,569.907,0.0
56769.0,STARLINK-5978,PAYLOAD,2024-08-11 15:54:56,14.98336961,0.0003086,70.0008,14.3012,271.6098,88.4708,5.6037e-05,5.76e-06,0.0,0 STARLINK-5978,1 56769U 23078C   24224.66315827  .00000576  00000-0  56037-4 0  9998,2 56769  70.0008  14.3012 0003086 271.6098  88.4708 14.98336961 66312,6950.171,96.107,574.181,569.892,0.0
56769.0,STARLINK-5978,PAYLOAD,2024-08-12 09:32:27,14.9830741,0.0003275,70.0008,12.4498,264.4863,95.5923,-0.00022568,-2.783e-05,0.0,0 STARLINK-5978,1 56769U 23078C   24225.39754225 -.00002783  00000-0 -22568-3 0  9993,2 56769  70.0008  12.4498 0003275 264.4863  95.5923 14.98307410 66426,6950.263,96.108,574.404,569.852,0.0
56769.0,STARLINK-5978,PAYLOAD,2024-08-12 15:57:00,14.9829938,0.0003515,70.001,11.7759,266.6652,93.4105,-0.0002822,-3.456e-05,0.0,0 STARLINK-5978,1 56769U 23078C   24225.66459270 -.00003456  00000-0 -28220-3 0  9994,2 56769  70.0010  11.7759 0003515 266.6652  93.4105 14.98299380 66467,6950.288,96.109,574.596,569.71,0.0
56769.0,STARLINK-5978,PAYLOAD,2024-08-13 09:34:27,14.98336461,0.0003443,70.0003,9.9247,266.174,93.9026,0.00012284,1.373e-05,0.0,0 STARLINK-5978,1 56769U 23078C   24226.39892646  .00001373  00000-0  12284-3 0  9990,2 56769  70.0003   9.9247 0003443 266.1740  93.9026 14.98336461 66574,6950.173,96.107,574.431,569.645,0.0
56769.0,STARLINK-5978,PAYLOAD,2024-08-13 19:11:15,14.98342289,0.0003379,69.9952,8.9124,266.2906,93.7867,0.00018096,2.067e-05,0.0,0 STARLINK-5978,1 56769U 23078C   24226.79948021  .00002067  00000-0  18096-3 0  9991,2 56769  69.9952   8.9124 0003379 266.2906  93.7867 14.98342289 66374,6950.155,96.106,574.368,569.671,0.0
56769.0,STARLINK-5978,PAYLOAD,2024-08-14 03:11:55,14.98319675,0.0003464,69.9938,8.07,264.1176,95.9588,0.00034841,4.065e-05,0.0,0 STARLINK-5978,1 56769U 23078C   24227.13328674  .00004065  00000-0  34841-3 0  9992,2 56769  69.9938   8.0700 0003464 264.1176  95.9588 14.98319675 66681,6950.225,96.108,574.497,569.682,0.0
56769.0,STARLINK-5978,PAYLOAD,2024-08-14 12:48:45,14.98311613,0.0003694,69.9989,7.0603,262.8998,97.1741,0.00030148,3.504e-05,0.0,0 STARLINK-5978,1 56769U 23078C   24227.53385538  .00003504  00000-0  30148-3 0  9991,2 56769  69.9989   7.0603 0003694 262.8998  97.1741 14.98311613 66746,6950.25,96.108,574.682,569.547,0.0
56769.0,STARLINK-5978,PAYLOAD,2024-08-14 14:24:53,14.98308586,0.0003769,69.9998,6.8914,262.889,97.1841,0.0002892,3.358e-05,0.0,0 STARLINK-5978,1 56769U 23078C   24227.60061864  .00003358  00000-0  28920-3 0  9994,2 56769  69.9998   6.8914 0003769 262.8890  97.1841 14.98308586 66490,6950.259,96.108,574.744,569.505,0.0
56769.0,STARLINK-5978,PAYLOAD,2024-08-14 19:13:17,14.98312086,0.0003638,70.0007,6.3895,266.6019,93.4724,0.00027832,3.228e-05,0.0,0 STARLINK-5978,1 56769U 23078C   24227.80089901  .00003228  00000-0  27832-3 0  9995,2 56769  70.0007   6.3895 0003638 266.6019  93.4724 14.98312086 66520,6950.248,96.108,574.642,569.585,0.0
56769.0,STARLINK-5978,PAYLOAD,2024-08-15 09:38:29,14.98340745,0.0003839,70.0,4.8755,266.0092,94.0628,-1.4846e-05,-2.7e-06,0.0,0 STARLINK-5978,1 56769U 23078C   24228.40172906 -.00000270  00000-0 -14846-4 0  9998,2 56769  70.0000   4.8755 0003839 266.0092  94.0628 14.98340745 66612,6950.16,96.106,574.693,569.356,0.0
56769.0,STARLINK-5978,PAYLOAD,2024-08-15 16:03:00,14.98364754,0.0003496,70.0008,4.2013,261.966,98.1102,-0.00030862,-3.777e-05,0.0,0 STARLINK-5978,1 56769U 23078C   24228.66875864 -.00003777  00000-0 -30862-3 0  9999,2 56769  70.0008   4.2013 0003496 261.9660  98.1102 14.98364754 66916,6950.085,96.105,574.38,569.521,0.0
56769.0,STARLINK-5978,PAYLOAD,2024-08-16 09:40:29,14.98332528,0.0003749,70.0005,2.35,267.7318,92.3412,0.00011843,1.32e-05,0.0,0 STARLINK-5978,1 56769U 23078C   24229.40312383  .00001320  00000-0  11843-3 0  9992,2 56769  70.0005   2.3500 0003749 267.7318  92.3412 14.98332528 67025,6950.185,96.107,574.656,569.444,0.0
56769.0,STARLINK-5978,PAYLOAD,2024-08-17 08:06:22,14.98334331,0.0003466,70.0008,359.9938,267.4188,92.6574,5.6812e-05,5.85e-06,0.0,0 STARLINK-5978,1 56769U 23078C   24230.33776293  .00000585  00000-0  56812-4 0  9998,2 56769  70.0008 359.9938 0003466 267.4188  92.6574 14.98334331 66904,6950.179,96.107,574.453,569.636,0.0
56769.0,STARLINK-5978,PAYLOAD,2024-08-17 19:19:18,14.98338485,0.0003874,70.0021,358.8154,269.8227,90.2488,-1.332e-05,-2.52e-06,0.0,0 STARLINK-5978,1 56769U 23078C   24230.80507833 -.00000252  00000-0 -13320-4 0  9992,2 56769  70.0021 358.8154 0003874 269.8227  90.2488 14.98338485 67239,6950.167,96.106,574.724,569.339,0.0
